IONOSFERA-M 04
1 64877U 25155B   25361.17820509  .00000115  00000-0  72153-4 0  9998
2 64877  98.5803 322.5564 0001222  50.4514 309.6772 14.21445823 21966
INNOSAT16 (RS92S7)
1 64878U 25155C   25360.94477261  .00005595  00000-0  24128-3 0  9991
2 64878  97.4354 324.1677 0013026  74.3709 285.8964 15.22881166 54437
GEOSCAN-6 (RS92S6)
1 64879U 25155D   25360.97330802  .00013680  00000-0  53608-3 0  9993
2 64879  97.4357 324.6058 0010632  71.1651 289.0739 15.25842914 54460
GEOSCAN 1 (RS92S1)
1 64880U 25155E   25360.89490927  .00014122  00000-0  54855-3 0  9998
2 64880  97.4358 324.5635 0010596  71.7667 288.4723 15.26130933 54452
239ALFEROV (RS61S)
1 64881U 25155F   25360.91355190  .00019222  00000-0  72427-3 0  9995
2 64881  97.4366 324.7132 0010415  71.8570 288.3802 15.27074482 54465
ASTROLINE-N1
1 64882U 25155G   25360.97172126  .00012572  00000-0  49571-3 0  9993
2 64882  97.4378 324.6348 0010010  71.7040 288.5286 15.25664059 54460
ASTROLINE-N2
1 64883U 25155H   25360.84067642  .00011942  00000-0  47115-3 0  9998
2 64883  97.4374 324.4957 0009917  70.9939 289.2372 15.25657497 54443
ASTROLINE-N3
1 64884U 25155J   25361.16826669  .00013065  00000-0  51393-3 0  9998
2 64884  97.4365 324.8292 0010661  66.4719 293.7638 15.25727111 54495
ASTROLINE-N4
1 64885U 25155K   25361.16409898  .00020568  00000-0  71028-3 0  9993
2 64885  97.4319 325.2023 0010214  62.1508 298.0766 15.29927050 54527
CSTP-4.3
1 64886U 25155L   25361.15592748  .00027317  00000-0  92861-3 0  9997
2 64886  97.4308 325.2043 0010745  65.9020 294.3343 15.30374048 54522
CSTP-4.2
1 64887U 25155M   25361.14206830  .00025756  00000-0  91048-3 0  9992
2 64887  97.4331 325.1115 0010345  63.1576 297.0720 15.29115255 54519
CSTP-4.1
1 64888U 25155N   25361.15193358  .00031859  00000-0  10817-2 0  9999
2 64888  97.4314 325.2248 0010329  62.2272 298.0015 15.30384462 54523
CSTP-4.4
1 64889U 25155P   25361.15527146  .00007055  00000-0  29091-3 0  9992
2 64889  97.4382 324.7037 0009443  68.4975 291.7268 15.24340193 54483
GEOSCAN 2 (RS92S2)
1 64890U 25155Q   25361.18426146  .00015225  00000-0  58540-3 0  9994
2 64890  97.4355 324.9289 0009654  60.8416 299.3787 15.26460285 54506
GEOSCAN-5 (RS92S5)
1 64891U 25155R   25361.13668464  .00017642  00000-0  65819-3 0  9993
2 64891  97.4357 325.0029 0009175  76.6493 283.5769 15.27432430 54508
GEOSCAN-4 (RS92S4)
1 64892U 25155S   25361.13311194  .00018473  00000-0  68747-3 0  9995
2 64892  97.4360 325.0116 0009223  77.1982 283.0287 15.27505576 54505
GEOSCAN-3 (RS92S3)
1 64893U 25155T   25361.16119898  .00020760  00000-0  75331-3 0  9995
2 64893  97.4356 325.1199 0009139  79.0991 281.1277 15.28314567 54518
INNOSAT3 (RS92S0)
1 64894U 25155U   25361.17984206  .00034351  00000-0  11414-2 0  9992
2 64894  97.4340 325.3858 0009130  80.8609 279.3664 15.31079193 54531
NAHID-2
1 64895U 25155V   25361.16841508  .00012474  00000-0  49175-3 0  9997
2 64895  97.4375 324.8222 0009830  70.5769 289.6531 15.25673639 54488
RSP-03
1 65732U 98067XL  25361.18372918  .00171198  00000-0  12340-2 0  9998
2 65732  51.6260  62.7293 0006157 342.7468  17.3320 15.72475718 15433
YOTSUBA-KULOVER
1 65941U 98067XN  25360.61031981  .00073250  00000-0  84262-3 0  9992
2 65941  51.6289  70.1673 0002571   5.6559 354.4463 15.61332207 12021
BOTAN
1 65942U 98067XP  25360.90000154  .00132903  00000-0  12627-2 0  9999
2 65942  51.6276  67.6002 0003620 350.1731   9.9193 15.65926329 12087
E-KAGAKU-1
1 65943U 98067XQ  25360.48238675  .00069021  00000-0  79497-3 0  9993
2 65943  51.6304  70.8185 0001474 333.5123  26.5795 15.61326456 12009
SCORPION (RS89S)
1 90000U          25362.61156250  .00024073  00000-0  10740-2 0 00002 
2 90000 097.4092 075.0791 0010388 225.2461 138.1944 15.21242219000103
GALAPAGOS-UTE-SWSU
1 90001U          25362.61156250  .00024073  00000-0  10740-2 0 00002 
2 90001 097.4092 075.0791 0010388 225.2461 138.1944 15.21242219000104
